[
    {
        "Altitude(m)": 707699.9773928063,
        "Argument of Periapsis(deg)": 0.010251109067964361,
        "Eccentricity": 0.0,
        "Inclination(deg)": 45.0,
        "Latitude(deg)": -18.711760745720458,
        "Longitude(deg)": 33.99424501854027,
        "Mean Anomaly(deg)": -153.25650501726733,
        "RAAN(deg)": 294.99032325268763,
        "Satellite Name": "Constellation 1 1310",
        "Satellite Number": 1310,
        "Semi-Major Axis(m)": 7083131.272910544,
        "Time(s)": 171
    },
    {
        "Altitude(m)": 707712.808801583,
        "Argument of Periapsis(deg)": 0.010311057074209765,
        "Eccentricity": 0.0,
        "Inclination(deg)": 45.0,
        "Latitude(deg)": -18.752364064258472,
        "Longitude(deg)": 34.0378428066559,
        "Mean Anomaly(deg)": -153.19580387701737,
        "RAAN(deg)": 294.99026666352205,
        "Satellite Name": "Constellation 1 1310",
        "Satellite Number": 1310,
        "Semi-Major Axis(m)": 7083131.272910544,
        "Time(s)": 172
    },
    {
        "Altitude(m)": 707725.6496366614,
        "Argument of Periapsis(deg)": 0.010371005080455171,
        "Eccentricity": 0.0,
        "Inclination(deg)": 45.0,
        "Latitude(deg)": -18.792954944832807,
        "Longitude(deg)": 34.081463288115,
        "Mean Anomaly(deg)": -153.1351027367674,
        "RAAN(deg)": 294.9902100743565,
        "Satellite Name": "Constellation 1 1310",
        "Satellite Number": 1310,
        "Semi-Major Axis(m)": 7083131.272910544,
        "Time(s)": 173
    },
    {
        "Altitude(m)": 707738.4998569642,
        "Argument of Periapsis(deg)": 0.010430953086700577,
        "Eccentricity": 0.0,
        "Inclination(deg)": 45.0,
        "Latitude(deg)": -18.833533353206885,
        "Longitude(deg)": 34.12510651986026,
        "Mean Anomaly(deg)": -153.0744015965176,
        "RAAN(deg)": 294.99015348519094,
        "Satellite Name": "Constellation 1 1310",
        "Satellite Number": 1310,
        "Semi-Major Axis(m)": 7083131.272910544,
        "Time(s)": 174
    },
    {
        "Altitude(m)": 707751.3594213696,
        "Argument of Periapsis(deg)": 0.010490901092945983,
        "Eccentricity": 0.0,
        "Inclination(deg)": 45.0,
        "Latitude(deg)": -18.874099255099964,
        "Longitude(deg)": 34.168772558864056,
        "Mean Anomaly(deg)": -153.01370045626766,
        "RAAN(deg)": 294.99009689602536,
        "Satellite Name": "Constellation 1 1310",
        "Satellite Number": 1310,
        "Semi-Major Axis(m)": 7083131.272910544,
        "Time(s)": 175
    },
    {
        "Altitude(m)": 707764.228288706,
        "Argument of Periapsis(deg)": 0.010550849099191389,
        "Eccentricity": 0.0,
        "Inclination(deg)": 45.0,
        "Latitude(deg)": -18.914652616186437,
        "Longitude(deg)": 34.21246146212722,
        "Mean Anomaly(deg)": -152.9529993160178,
        "RAAN(deg)": 294.9900403068598,
        "Satellite Name": "Constellation 1 1310",
        "Satellite Number": 1310,
        "Semi-Major Axis(m)": 7083131.272910544,
        "Time(s)": 176
    },
    {
        "Altitude(m)": 707777.1064177465,
        "Argument of Periapsis(deg)": 0.010610797105436795,
        "Eccentricity": 0.0,
        "Inclination(deg)": 45.0,
        "Latitude(deg)": -18.955193402096594,
        "Longitude(deg)": 34.25617328667997,
        "Mean Anomaly(deg)": -152.89229817576788,
        "RAAN(deg)": 294.9899837176942,
        "Satellite Name": "Constellation 1 1310",
        "Satellite Number": 1310,
        "Semi-Major Axis(m)": 7083131.272910544,
        "Time(s)": 177
    },
    {
        "Altitude(m)": 707789.9937672196,
        "Argument of Periapsis(deg)": 0.0106707451116822,
        "Eccentricity": 0.0,
        "Inclination(deg)": 45.0,
        "Latitude(deg)": -18.995721578415786,
        "Longitude(deg)": 34.299907921484234,
        "Mean Anomaly(deg)": -152.831597035518,
        "RAAN(deg)": 294.9899271285287,
        "Satellite Name": "Constellation 1 1310",
        "Satellite Number": 1310,
        "Semi-Major Axis(m)": 7083131.272910544,
        "Time(s)": 178
    },
    {
        "Altitude(m)": 707802.8902957946,
        "Argument of Periapsis(deg)": 0.010730693117927606,
        "Eccentricity": 0.0,
        "Inclination(deg)": 45.0,
        "Latitude(deg)": -19.036237110684258,
        "Longitude(deg)": 34.343665759822265,
        "Mean Anomaly(deg)": -152.770895895268,
        "RAAN(deg)": 294.9898705393631,
        "Satellite Name": "Constellation 1 1310",
        "Satellite Number": 1310,
        "Semi-Major Axis(m)": 7083131.272910544,
        "Time(s)": 179
    },
    {
        "Altitude(m)": 707815.7959621061,
        "Argument of Periapsis(deg)": 0.01079064112417301,
        "Eccentricity": 0.0,
        "Inclination(deg)": 45.0,
        "Latitude(deg)": -19.07673996439765,
        "Longitude(deg)": 34.38744669071369,
        "Mean Anomaly(deg)": -152.71019475501816,
        "RAAN(deg)": 294.98981395019746,
        "Satellite Name": "Constellation 1 1310",
        "Satellite Number": 1310,
        "Semi-Major Axis(m)": 7083131.272910544,
        "Time(s)": 180
    },
    {
        "Altitude(m)": 707828.7107247211,
        "Argument of Periapsis(deg)": 0.010850589130418416,
        "Eccentricity": 0.0,
        "Inclination(deg)": 45.0,
        "Latitude(deg)": -19.117230105006648,
        "Longitude(deg)": 34.43125077130444,
        "Mean Anomaly(deg)": -152.64949361476832,
        "RAAN(deg)": 294.98975736103193,
        "Satellite Name": "Constellation 1 1310",
        "Satellite Number": 1310,
        "Semi-Major Axis(m)": 7083131.272910544,
        "Time(s)": 181
    },
    {
        "Altitude(m)": 707841.634542174,
        "Argument of Periapsis(deg)": 0.01091053713666382,
        "Eccentricity": 0.0,
        "Inclination(deg)": 45.0,
        "Latitude(deg)": -19.157707497916725,
        "Longitude(deg)": 34.475078058769135,
        "Mean Anomaly(deg)": -152.58879247451836,
        "RAAN(deg)": 294.98970077186635,
        "Satellite Name": "Constellation 1 1310",
        "Satellite Number": 1310,
        "Semi-Major Axis(m)": 7083131.272910544,
        "Time(s)": 182
    },
    {
        "Altitude(m)": 707854.5673729389,
        "Argument of Periapsis(deg)": 0.010970485142909228,
        "Eccentricity": 0.0,
        "Inclination(deg)": 45.0,
        "Latitude(deg)": -19.19817210848785,
        "Longitude(deg)": 34.51892861031077,
        "Mean Anomaly(deg)": -152.52809133426848,
        "RAAN(deg)": 294.98964418270083,
        "Satellite Name": "Constellation 1 1310",
        "Satellite Number": 1310,
        "Semi-Major Axis(m)": 7083131.272910544,
        "Time(s)": 183
    },
    {
        "Altitude(m)": 707867.5091754366,
        "Argument of Periapsis(deg)": 0.011030433149154634,
        "Eccentricity": 0.0,
        "Inclination(deg)": 45.0,
        "Latitude(deg)": -19.238623902035005,
        "Longitude(deg)": 34.56280248316151,
        "Mean Anomaly(deg)": -152.4673901940186,
        "RAAN(deg)": 294.98958759353525,
        "Satellite Name": "Constellation 1 1310",
        "Satellite Number": 1310,
        "Semi-Major Axis(m)": 7083131.272910544,
        "Time(s)": 184
    },
    {
        "Altitude(m)": 707880.4599080578,
        "Argument of Periapsis(deg)": 0.01109038115540004,
        "Eccentricity": 0.0,
        "Inclination(deg)": 45.0,
        "Latitude(deg)": -19.279062843827592,
        "Longitude(deg)": 34.6066995664848,
        "Mean Anomaly(deg)": -152.40668905376864,
        "RAAN(deg)": 294.9895310043696,
        "Satellite Name": "Constellation 1 1310",
        "Satellite Number": 1310,
        "Semi-Major Axis(m)": 7083131.272910544,
        "Time(s)": 185
    },
    {
        "Altitude(m)": 707893.4195291277,
        "Argument of Periapsis(deg)": 0.011150329161645444,
        "Eccentricity": 0.0,
        "Inclination(deg)": 45.0,
        "Latitude(deg)": -19.319488899088718,
        "Longitude(deg)": 34.650620253763684,
        "Mean Anomaly(deg)": -152.34598791351883,
        "RAAN(deg)": 294.9894744152041,
        "Satellite Name": "Constellation 1 1310",
        "Satellite Number": 1310,
        "Semi-Major Axis(m)": 7083131.272910544,
        "Time(s)": 186
    },
    {
        "Altitude(m)": 707906.3879969241,
        "Argument of Periapsis(deg)": 0.01121027716789085,
        "Eccentricity": 0.0,
        "Inclination(deg)": 45.0,
        "Latitude(deg)": -19.35990203299663,
        "Longitude(deg)": 34.694564434218904,
        "Mean Anomaly(deg)": -152.28528677326895,
        "RAAN(deg)": 294.9894178260385,
        "Satellite Name": "Constellation 1 1310",
        "Satellite Number": 1310,
        "Semi-Major Axis(m)": 7083131.272910544,
        "Time(s)": 187
    },
    {
        "Altitude(m)": 707919.3652696867,
        "Argument of Periapsis(deg)": 0.011270225174136258,
        "Eccentricity": 0.0,
        "Inclination(deg)": 45.0,
        "Latitude(deg)": -19.400302210683417,
        "Longitude(deg)": 34.73853216519657,
        "Mean Anomaly(deg)": -152.22458563301902,
        "RAAN(deg)": 294.989361236873,
        "Satellite Name": "Constellation 1 1310",
        "Satellite Number": 1310,
        "Semi-Major Axis(m)": 7083131.272910544,
        "Time(s)": 188
    },
    {
        "Altitude(m)": 707932.351305597,
        "Argument of Periapsis(deg)": 0.011330173180381662,
        "Eccentricity": 0.0,
        "Inclination(deg)": 45.0,
        "Latitude(deg)": -19.4406893972352,
        "Longitude(deg)": 34.78252350407096,
        "Mean Anomaly(deg)": -152.16388449276906,
        "RAAN(deg)": 294.9893046477074,
        "Satellite Name": "Constellation 1 1310",
        "Satellite Number": 1310,
        "Semi-Major Axis(m)": 7083131.272910544,
        "Time(s)": 189
    }
]